{
  "type": "FeatureCollection",
  "features": [
    {
      "type": "Feature",
      "properties": {
        "name": "Western Canada Sedimentary Basin",
        "type": "basin",
        "color": "#7c3aed"
      },
      "geometry": {
        "type": "Polygon",
        "coordinates": [
          [
            [-123.5, 61.5],
            [-121.0, 58.0],
            [-118.0, 54.0],
            [-114.5, 51.0],
            [-114.0, 49.0],
            [-104.0, 49.0],
            [-97.0, 49.0],
            [-98.5, 51.5],
            [-102.0, 54.0],
            [-106.0, 56.5],
            [-111.0, 59.0],
            [-116.0, 61.5],
            [-123.5, 61.5]
          ]
        ]
      }
    },
    {
      "type": "Feature",
      "properties": {
        "name": "Williston Basin",
        "type": "basin",
        "color": "#8b5cf6"
      },
      "geometry": {
        "type": "Polygon",
        "coordinates": [
          [
            [-106.0, 49.0],
            [-100.0, 49.0],
            [-98.5, 47.0],
            [-99.5, 45.0],
            [-103.0, 44.5],
            [-105.5, 45.5],
            [-107.0, 47.5],
            [-106.0, 49.0]
          ]
        ]
      }
    }
  ]
}
