{
  "type": "FeatureCollection",
  "features": [
    {
      "type": "Feature",
      "geometry": {
        "type": "Point",
        "coordinates": [
          -111.9308654,
          40.8059765
        ]
      },
      "properties": {
        "type": "storage",
        "subtype": "oil",
        "name": "OIL Storage",
        "operator": "Multiple/Unknown",
        "capacity": "3.1M bbls",
        "capacity_num": 3144438,
        "utilization": 82
      }
    },
    {
      "type": "Feature",
      "geometry": {
        "type": "Point",
        "coordinates": [
          -95.2819086,
          29.7951985
        ]
      },
      "properties": {
        "type": "storage",
        "subtype": "oil",
        "name": "OIL Storage",
        "operator": "Multiple/Unknown",
        "capacity": "4.7M bbls",
        "capacity_num": 4744354,
        "utilization": 93
      }
    },
    {
      "type": "Feature",
      "geometry": {
        "type": "Point",
        "coordinates": [
          -95.1169256,
          29.6235204
        ]
      },
      "properties": {
        "type": "storage",
        "subtype": "gas",
        "name": "Clear Lake Gas Storage",
        "operator": "Kinder Morgan",
        "capacity": "2.4M bbls",
        "capacity_num": 2428954,
        "utilization": 93
      }
    },
    {
      "type": "Feature",
      "geometry": {
        "type": "Point",
        "coordinates": [
          -93.1002008,
          44.8005622
        ]
      },
      "properties": {
        "type": "storage",
        "subtype": "gas",
        "name": "Wescott Gas Plant",
        "operator": "Xcel Energy",
        "capacity": "0.6M bbls",
        "capacity_num": 579348,
        "utilization": 91
      }
    },
    {
      "type": "Feature",
      "geometry": {
        "type": "Point",
        "coordinates": [
          -102.9102945,
          48.3969568
        ]
      },
      "properties": {
        "type": "storage",
        "subtype": "oil",
        "name": "OIL Storage",
        "operator": "Multiple/Unknown",
        "capacity": "2.0M bbls",
        "capacity_num": 2023114,
        "utilization": 82
      }
    },
    {
      "type": "Feature",
      "geometry": {
        "type": "Point",
        "coordinates": [
          -102.9594456,
          48.394532
        ]
      },
      "properties": {
        "type": "storage",
        "subtype": "oil",
        "name": "OIL Storage",
        "operator": "Multiple/Unknown",
        "capacity": "4.0M bbls",
        "capacity_num": 4006265,
        "utilization": 82
      }
    },
    {
      "type": "Feature",
      "geometry": {
        "type": "Point",
        "coordinates": [
          -119.9561963,
          35.6473818
        ]
      },
      "properties": {
        "type": "storage",
        "subtype": "oil",
        "name": "OIL Storage",
        "operator": "Multiple/Unknown",
        "capacity": "3.5M bbls",
        "capacity_num": 3529926,
        "utilization": 82
      }
    },
    {
      "type": "Feature",
      "geometry": {
        "type": "Point",
        "coordinates": [
          -109.038924,
          51.8762756
        ]
      },
      "properties": {
        "type": "storage",
        "subtype": "oil",
        "name": "OIL Storage",
        "operator": "Multiple/Unknown",
        "capacity": "2.3M bbls",
        "capacity_num": 2329356,
        "utilization": 88
      }
    },
    {
      "type": "Feature",
      "geometry": {
        "type": "Point",
        "coordinates": [
          -86.8323567,
          33.2888935
        ]
      },
      "properties": {
        "type": "storage",
        "subtype": "oil",
        "name": "Colonial Pipeline Tank Farm",
        "operator": "Products (SE) Pipe Line Corporation",
        "capacity": "0.6M bbls",
        "capacity_num": 614592,
        "utilization": 93
      }
    },
    {
      "type": "Feature",
      "geometry": {
        "type": "Point",
        "coordinates": [
          -84.4347983,
          33.6522179
        ]
      },
      "properties": {
        "type": "storage",
        "subtype": "oil",
        "name": "Atlanta Airport Tank Farm",
        "operator": "Multiple/Unknown",
        "capacity": "3.0M bbls",
        "capacity_num": 2980954,
        "utilization": 91
      }
    },
    {
      "type": "Feature",
      "geometry": {
        "type": "Point",
        "coordinates": [
          -107.4329772,
          24.7730227
        ]
      },
      "properties": {
        "type": "storage",
        "subtype": "oil",
        "name": "PEMEX",
        "operator": "Multiple/Unknown",
        "capacity": "2.9M bbls",
        "capacity_num": 2941973,
        "utilization": 91
      }
    },
    {
      "type": "Feature",
      "geometry": {
        "type": "Point",
        "coordinates": [
          -72.6443402,
          40.975792
        ]
      },
      "properties": {
        "type": "storage",
        "subtype": "oil",
        "name": "OIL Storage",
        "operator": "Multiple/Unknown",
        "capacity": "3.8M bbls",
        "capacity_num": 3833743,
        "utilization": 85
      }
    },
    {
      "type": "Feature",
      "geometry": {
        "type": "Point",
        "coordinates": [
          -116.6818574,
          31.8822456
        ]
      },
      "properties": {
        "type": "storage",
        "subtype": "oil",
        "name": "Pemex",
        "operator": "Multiple/Unknown",
        "capacity": "4.1M bbls",
        "capacity_num": 4085086,
        "utilization": 91
      }
    },
    {
      "type": "Feature",
      "geometry": {
        "type": "Point",
        "coordinates": [
          -66.5850095,
          45.9071841
        ]
      },
      "properties": {
        "type": "storage",
        "subtype": "oil",
        "name": "OIL Storage",
        "operator": "Multiple/Unknown",
        "capacity": "4.4M bbls",
        "capacity_num": 4445271,
        "utilization": 85
      }
    },
    {
      "type": "Feature",
      "geometry": {
        "type": "Point",
        "coordinates": [
          -98.2826869,
          47.0936411
        ]
      },
      "properties": {
        "type": "storage",
        "subtype": "oil",
        "name": "OIL Storage",
        "operator": "Multiple/Unknown",
        "capacity": "0.6M bbls",
        "capacity_num": 612833,
        "utilization": 91
      }
    },
    {
      "type": "Feature",
      "geometry": {
        "type": "Point",
        "coordinates": [
          -83.970022,
          42.2232879
        ]
      },
      "properties": {
        "type": "storage",
        "subtype": "oil",
        "name": "Freedom Station",
        "operator": "Marathon Pipe Line LLC",
        "capacity": "4.3M bbls",
        "capacity_num": 4280757,
        "utilization": 85
      }
    },
    {
      "type": "Feature",
      "geometry": {
        "type": "Point",
        "coordinates": [
          -83.0731426,
          42.3989061
        ]
      },
      "properties": {
        "type": "storage",
        "subtype": "oil",
        "name": "Sterling Services",
        "operator": "Multiple/Unknown",
        "capacity": "5.1M bbls",
        "capacity_num": 5067107,
        "utilization": 85
      }
    },
    {
      "type": "Feature",
      "geometry": {
        "type": "Point",
        "coordinates": [
          -83.1226747,
          42.2742774
        ]
      },
      "properties": {
        "type": "storage",
        "subtype": "oil",
        "name": "Michigan Marine Terminal",
        "operator": "Multiple/Unknown",
        "capacity": "1.5M bbls",
        "capacity_num": 1501160,
        "utilization": 85
      }
    },
    {
      "type": "Feature",
      "geometry": {
        "type": "Point",
        "coordinates": [
          -83.1638688,
          42.2751945
        ]
      },
      "properties": {
        "type": "storage",
        "subtype": "oil",
        "name": "Marathon Melvindale Tank Farm",
        "operator": "Multiple/Unknown",
        "capacity": "4.4M bbls",
        "capacity_num": 4430267,
        "utilization": 85
      }
    },
    {
      "type": "Feature",
      "geometry": {
        "type": "Point",
        "coordinates": [
          -96.4722767,
          32.0708225
        ]
      },
      "properties": {
        "type": "storage",
        "subtype": "oil",
        "name": "OIL Storage",
        "operator": "Multiple/Unknown",
        "capacity": "4.4M bbls",
        "capacity_num": 4417109,
        "utilization": 93
      }
    },
    {
      "type": "Feature",
      "geometry": {
        "type": "Point",
        "coordinates": [
          -81.3827708,
          41.0671627
        ]
      },
      "properties": {
        "type": "storage",
        "subtype": "oil",
        "name": "OIL Storage",
        "operator": "Multiple/Unknown",
        "capacity": "2.1M bbls",
        "capacity_num": 2109020,
        "utilization": 85
      }
    },
    {
      "type": "Feature",
      "geometry": {
        "type": "Point",
        "coordinates": [
          -83.1642513,
          42.3276028
        ]
      },
      "properties": {
        "type": "storage",
        "subtype": "oil",
        "name": "Wolverine Oil and Supply Company",
        "operator": "Multiple/Unknown",
        "capacity": "4.8M bbls",
        "capacity_num": 4830643,
        "utilization": 85
      }
    },
    {
      "type": "Feature",
      "geometry": {
        "type": "Point",
        "coordinates": [
          -94.8323429,
          32.4845419
        ]
      },
      "properties": {
        "type": "storage",
        "subtype": "oil",
        "name": "Mid-Valley Pipeline Company",
        "operator": "Multiple/Unknown",
        "capacity": "2.1M bbls",
        "capacity_num": 2137681,
        "utilization": 93
      }
    },
    {
      "type": "Feature",
      "geometry": {
        "type": "Point",
        "coordinates": [
          -94.8387845,
          32.483134
        ]
      },
      "properties": {
        "type": "storage",
        "subtype": "oil",
        "name": "Sunoco Pipeline",
        "operator": "Multiple/Unknown",
        "capacity": "5.5M bbls",
        "capacity_num": 5463068,
        "utilization": 93
      }
    },
    {
      "type": "Feature",
      "geometry": {
        "type": "Point",
        "coordinates": [
          -94.8358749,
          32.4822524
        ]
      },
      "properties": {
        "type": "storage",
        "subtype": "oil",
        "name": "Permian Express Partners",
        "operator": "Multiple/Unknown",
        "capacity": "1.1M bbls",
        "capacity_num": 1123121,
        "utilization": 93
      }
    },
    {
      "type": "Feature",
      "geometry": {
        "type": "Point",
        "coordinates": [
          -94.8368992,
          32.4802096
        ]
      },
      "properties": {
        "type": "storage",
        "subtype": "oil",
        "name": "Delek Crude Logistics",
        "operator": "Multiple/Unknown",
        "capacity": "5.0M bbls",
        "capacity_num": 4992273,
        "utilization": 93
      }
    },
    {
      "type": "Feature",
      "geometry": {
        "type": "Point",
        "coordinates": [
          -94.837394,
          32.4782407
        ]
      },
      "properties": {
        "type": "storage",
        "subtype": "oil",
        "name": "Plains Marketing",
        "operator": "Multiple/Unknown",
        "capacity": "4.3M bbls",
        "capacity_num": 4329182,
        "utilization": 93
      }
    },
    {
      "type": "Feature",
      "geometry": {
        "type": "Point",
        "coordinates": [
          -83.1436066,
          42.2886809
        ]
      },
      "properties": {
        "type": "storage",
        "subtype": "oil",
        "name": "Marathon Petroleum Rouge Terminal",
        "operator": "Multiple/Unknown",
        "capacity": "2.9M bbls",
        "capacity_num": 2906614,
        "utilization": 85
      }
    },
    {
      "type": "Feature",
      "geometry": {
        "type": "Point",
        "coordinates": [
          -87.9256283,
          41.1239418
        ]
      },
      "properties": {
        "type": "storage",
        "subtype": "oil",
        "name": "OIL Storage",
        "operator": "Multiple/Unknown",
        "capacity": "4.5M bbls",
        "capacity_num": 4541186,
        "utilization": 91
      }
    },
    {
      "type": "Feature",
      "geometry": {
        "type": "Point",
        "coordinates": [
          -93.1675843,
          32.9502182
        ]
      },
      "properties": {
        "type": "storage",
        "subtype": "oil",
        "name": "Haynesville Tank Farm",
        "operator": "Mid Valley Pipeline Company LLC",
        "capacity": "2.0M bbls",
        "capacity_num": 1989466,
        "utilization": 93
      }
    },
    {
      "type": "Feature",
      "geometry": {
        "type": "Point",
        "coordinates": [
          -95.1830011,
          29.6148824
        ]
      },
      "properties": {
        "type": "storage",
        "subtype": "oil",
        "name": "OIL Storage",
        "operator": "Multiple/Unknown",
        "capacity": "3.8M bbls",
        "capacity_num": 3802285,
        "utilization": 93
      }
    },
    {
      "type": "Feature",
      "geometry": {
        "type": "Point",
        "coordinates": [
          -93.405289,
          29.9993379
        ]
      },
      "properties": {
        "type": "storage",
        "subtype": "oil",
        "name": "West Hackberry Strategic Petroleum Reserve",
        "operator": "US Department of Energy",
        "capacity": "220400000 barrels",
        "capacity_num": 220400000,
        "utilization": 93
      }
    },
    {
      "type": "Feature",
      "geometry": {
        "type": "Point",
        "coordinates": [
          -88.0143794,
          41.018426
        ]
      },
      "properties": {
        "type": "storage",
        "subtype": "oil",
        "name": "OIL Storage",
        "operator": "Multiple/Unknown",
        "capacity": "3.5M bbls",
        "capacity_num": 3515505,
        "utilization": 91
      }
    },
    {
      "type": "Feature",
      "geometry": {
        "type": "Point",
        "coordinates": [
          -97.1723879,
          34.6201638
        ]
      },
      "properties": {
        "type": "storage",
        "subtype": "oil",
        "name": "OIL Storage",
        "operator": "Multiple/Unknown",
        "capacity": "3.3M bbls",
        "capacity_num": 3262443,
        "utilization": 93
      }
    },
    {
      "type": "Feature",
      "geometry": {
        "type": "Point",
        "coordinates": [
          -97.7882944,
          29.2603761
        ]
      },
      "properties": {
        "type": "refinery",
        "subtype": "oil",
        "name": "Nixon Refinery",
        "operator": "Lazarus Energy;Blue Dolphin",
        "capacity": "98k bbl/d",
        "capacity_num": 98471,
        "utilization": 93
      }
    },
    {
      "type": "Feature",
      "geometry": {
        "type": "Point",
        "coordinates": [
          -88.6607284,
          33.7455388
        ]
      },
      "properties": {
        "type": "storage",
        "subtype": "gas",
        "name": "Muldon Gas Storage",
        "operator": "Southern Natural Gas",
        "capacity": "5.1M bbls",
        "capacity_num": 5100986,
        "utilization": 93
      }
    },
    {
      "type": "Feature",
      "geometry": {
        "type": "Point",
        "coordinates": [
          -94.8375202,
          32.4866129
        ]
      },
      "properties": {
        "type": "storage",
        "subtype": "oil",
        "name": "Plains Marketing",
        "operator": "Multiple/Unknown",
        "capacity": "5.2M bbls",
        "capacity_num": 5233827,
        "utilization": 93
      }
    },
    {
      "type": "Feature",
      "geometry": {
        "type": "Point",
        "coordinates": [
          -92.6002179,
          32.6796113
        ]
      },
      "properties": {
        "type": "storage",
        "subtype": "gas",
        "name": "West Unionville Gas Storage",
        "operator": "Enable Mississippi River Transmission, LLC",
        "capacity": "1.3M bbls",
        "capacity_num": 1301714,
        "utilization": 93
      }
    },
    {
      "type": "Feature",
      "geometry": {
        "type": "Point",
        "coordinates": [
          -84.239463,
          42.508954
        ]
      },
      "properties": {
        "type": "storage",
        "subtype": "oil",
        "name": "OIL Storage",
        "operator": "Multiple/Unknown",
        "capacity": "0.7M bbls",
        "capacity_num": 716497,
        "utilization": 85
      }
    },
    {
      "type": "Feature",
      "geometry": {
        "type": "Point",
        "coordinates": [
          -88.014781,
          31.2560624
        ]
      },
      "properties": {
        "type": "storage",
        "subtype": "gas",
        "name": "Bay Gas Storage",
        "operator": "Bay Gas Storage Company, LLC",
        "capacity": "2.3M bbls",
        "capacity_num": 2330768,
        "utilization": 93
      }
    },
    {
      "type": "Feature",
      "geometry": {
        "type": "Point",
        "coordinates": [
          -91.2781262,
          30.6351934
        ]
      },
      "properties": {
        "type": "storage",
        "subtype": "oil",
        "name": "Port Hudson Tank Farm",
        "operator": "Multiple/Unknown",
        "capacity": "4.4M bbls",
        "capacity_num": 4405624,
        "utilization": 93
      }
    },
    {
      "type": "Feature",
      "geometry": {
        "type": "Point",
        "coordinates": [
          -81.7673188,
          36.8587463
        ]
      },
      "properties": {
        "type": "storage",
        "subtype": "gas",
        "name": "Saltville Gas Storage",
        "operator": "Saltville Gas Storage Company L.L.C.",
        "capacity": "3.4M bbls",
        "capacity_num": 3440561,
        "utilization": 85
      }
    },
    {
      "type": "Feature",
      "geometry": {
        "type": "Point",
        "coordinates": [
          -89.6447978,
          34.9816056
        ]
      },
      "properties": {
        "type": "storage",
        "subtype": "oil",
        "name": "Valero Collierville Terminal",
        "operator": "Multiple/Unknown",
        "capacity": "975691 barrels",
        "capacity_num": 975691,
        "utilization": 93
      }
    },
    {
      "type": "Feature",
      "geometry": {
        "type": "Point",
        "coordinates": [
          -88.8788265,
          37.6441154
        ]
      },
      "properties": {
        "type": "storage",
        "subtype": "oil",
        "name": "Creal Springs Terminal",
        "operator": "Enterprise Products Operating LLC",
        "capacity": "2.1M bbls",
        "capacity_num": 2104430,
        "utilization": 91
      }
    },
    {
      "type": "Feature",
      "geometry": {
        "type": "Point",
        "coordinates": [
          -87.4727127,
          38.885774
        ]
      },
      "properties": {
        "type": "storage",
        "subtype": "gas",
        "name": "Oaktown Gas Storage",
        "operator": "Texas Gas Transmission, LLC",
        "capacity": "5.2M bbls",
        "capacity_num": 5223674,
        "utilization": 91
      }
    },
    {
      "type": "Feature",
      "geometry": {
        "type": "Point",
        "coordinates": [
          -82.5458165,
          27.6268451
        ]
      },
      "properties": {
        "type": "storage",
        "subtype": "oil",
        "name": "OIL Storage",
        "operator": "Multiple/Unknown",
        "capacity": "0.5M bbls",
        "capacity_num": 519736,
        "utilization": 91
      }
    },
    {
      "type": "Feature",
      "geometry": {
        "type": "Point",
        "coordinates": [
          -91.2001947,
          30.5502111
        ]
      },
      "properties": {
        "type": "storage",
        "subtype": "oil",
        "name": "Ergon Oil Purchasing",
        "operator": "Multiple/Unknown",
        "capacity": "3.9M bbls",
        "capacity_num": 3904821,
        "utilization": 93
      }
    },
    {
      "type": "Feature",
      "geometry": {
        "type": "Point",
        "coordinates": [
          -90.8508463,
          30.03602
        ]
      },
      "properties": {
        "type": "storage",
        "subtype": "oil",
        "name": "Ergon St. James Terminal",
        "operator": "Ergon Terminaling, Inc.",
        "capacity": "2000000 barrels",
        "capacity_num": 2000000,
        "utilization": 93
      }
    },
    {
      "type": "Feature",
      "geometry": {
        "type": "Point",
        "coordinates": [
          -83.6268117,
          32.799188
        ]
      },
      "properties": {
        "type": "storage",
        "subtype": "oil",
        "name": "OIL Storage",
        "operator": "Multiple/Unknown",
        "capacity": "3.8M bbls",
        "capacity_num": 3805658,
        "utilization": 91
      }
    },
    {
      "type": "Feature",
      "geometry": {
        "type": "Point",
        "coordinates": [
          -83.5860305,
          32.6232099
        ]
      },
      "properties": {
        "type": "storage",
        "subtype": "oil",
        "name": "Fuel Storage",
        "operator": "Multiple/Unknown",
        "capacity": "1.2M bbls",
        "capacity_num": 1151479,
        "utilization": 91
      }
    },
    {
      "type": "Feature",
      "geometry": {
        "type": "Point",
        "coordinates": [
          -84.4168413,
          33.6528085
        ]
      },
      "properties": {
        "type": "storage",
        "subtype": "oil",
        "name": "OIL Storage",
        "operator": "Multiple/Unknown",
        "capacity": "2.0M bbls",
        "capacity_num": 2015612,
        "utilization": 91
      }
    },
    {
      "type": "Feature",
      "geometry": {
        "type": "Point",
        "coordinates": [
          -91.7412546,
          35.2441323
        ]
      },
      "properties": {
        "type": "storage",
        "subtype": "oil",
        "name": "Stephenson Oil Company",
        "operator": "Multiple/Unknown",
        "capacity": "4.2M bbls",
        "capacity_num": 4172165,
        "utilization": 91
      }
    },
    {
      "type": "Feature",
      "geometry": {
        "type": "Point",
        "coordinates": [
          -77.4881134,
          38.9732307
        ]
      },
      "properties": {
        "type": "storage",
        "subtype": "gas",
        "name": "Balloon Inflation Building",
        "operator": "Multiple/Unknown",
        "capacity": "3.6M bbls",
        "capacity_num": 3615635,
        "utilization": 85
      }
    },
    {
      "type": "Feature",
      "geometry": {
        "type": "Point",
        "coordinates": [
          -81.6976658,
          42.4771104
        ]
      },
      "properties": {
        "type": "storage",
        "subtype": "oil",
        "name": "OIL Storage",
        "operator": "Multiple/Unknown",
        "capacity": "2.4M bbls",
        "capacity_num": 2386562,
        "utilization": 85
      }
    },
    {
      "type": "Feature",
      "geometry": {
        "type": "Point",
        "coordinates": [
          -91.2186261,
          30.4783265
        ]
      },
      "properties": {
        "type": "storage",
        "subtype": "oil",
        "name": "Anchorage Tank Farm",
        "operator": "Exxon Mobil Corporation",
        "capacity": "4000000 barrels",
        "capacity_num": 4000000,
        "utilization": 93
      }
    },
    {
      "type": "Feature",
      "geometry": {
        "type": "Point",
        "coordinates": [
          -89.3256747,
          31.8720815
        ]
      },
      "properties": {
        "type": "storage",
        "subtype": "gas",
        "name": "Leaf River Gas Storage",
        "operator": "Leaf River Energy Center LLC",
        "capacity": "39239700 Mcf",
        "capacity_num": 39239700,
        "utilization": 93
      }
    },
    {
      "type": "Feature",
      "geometry": {
        "type": "Point",
        "coordinates": [
          -89.4172297,
          31.5955433
        ]
      },
      "properties": {
        "type": "storage",
        "subtype": "gas",
        "name": "Eminence Gas Storage",
        "operator": "Transcontinental Gas Pipeline Company",
        "capacity": "15025000 Mcf",
        "capacity_num": 15025000,
        "utilization": 93
      }
    },
    {
      "type": "Feature",
      "geometry": {
        "type": "Point",
        "coordinates": [
          -88.7036063,
          31.2247105
        ]
      },
      "properties": {
        "type": "storage",
        "subtype": "gas",
        "name": "Southern Pines Energy Center",
        "operator": "SG Resources Mississippi LLC",
        "capacity": "51200000 Mcf",
        "capacity_num": 51200000,
        "utilization": 93
      }
    },
    {
      "type": "Feature",
      "geometry": {
        "type": "Point",
        "coordinates": [
          -91.5557924,
          32.4445524
        ]
      },
      "properties": {
        "type": "storage",
        "subtype": "oil",
        "name": "Delhi Crude Station",
        "operator": "Mid Valley Pipeline Company LLC",
        "capacity": "4.2M bbls",
        "capacity_num": 4158445,
        "utilization": 93
      }
    },
    {
      "type": "Feature",
      "geometry": {
        "type": "Point",
        "coordinates": [
          -88.1111327,
          34.0247365
        ]
      },
      "properties": {
        "type": "storage",
        "subtype": "gas",
        "name": "Freebird Gas Storage",
        "operator": "Freebird Gas Storage, LLC",
        "capacity": "3.4M bbls",
        "capacity_num": 3389465,
        "utilization": 93
      }
    },
    {
      "type": "Feature",
      "geometry": {
        "type": "Point",
        "coordinates": [
          -88.4573164,
          34.0138074
        ]
      },
      "properties": {
        "type": "storage",
        "subtype": "gas",
        "name": "Monroe Gas Storage",
        "operator": "Monroe Gas Storage Company, LLC",
        "capacity": "19000000 Mcf",
        "capacity_num": 19000000,
        "utilization": 93
      }
    },
    {
      "type": "Feature",
      "geometry": {
        "type": "Point",
        "coordinates": [
          -88.3109344,
          33.6984989
        ]
      },
      "properties": {
        "type": "storage",
        "subtype": "gas",
        "name": "Caledonia Gas Storage",
        "operator": "Caledonia Energy Partners, L.L.C.",
        "capacity": "23200000 Mcf",
        "capacity_num": 23200000,
        "utilization": 93
      }
    },
    {
      "type": "Feature",
      "geometry": {
        "type": "Point",
        "coordinates": [
          -91.7490058,
          30.5289025
        ]
      },
      "properties": {
        "type": "storage",
        "subtype": "oil",
        "name": "Krotz Springs Breakout Tanks",
        "operator": "Colonial Pipeline Company",
        "capacity": "3.9M bbls",
        "capacity_num": 3927180,
        "utilization": 93
      }
    },
    {
      "type": "Feature",
      "geometry": {
        "type": "Point",
        "coordinates": [
          -89.7634499,
          31.781796
        ]
      },
      "properties": {
        "type": "storage",
        "subtype": "gas",
        "name": "Mississippi Hub Gas Storage",
        "operator": "Mississippi Hub, LLC",
        "capacity": "0.7M bbls",
        "capacity_num": 706054,
        "utilization": 93
      }
    },
    {
      "type": "Feature",
      "geometry": {
        "type": "Point",
        "coordinates": [
          -95.9335457,
          29.2933053
        ]
      },
      "properties": {
        "type": "storage",
        "subtype": "gas",
        "name": "Wilson Gas Storage",
        "operator": "Enterprise Products Operating, LLC",
        "capacity": "3.9M bbls",
        "capacity_num": 3940371,
        "utilization": 93
      }
    },
    {
      "type": "Feature",
      "geometry": {
        "type": "Point",
        "coordinates": [
          -89.2622016,
          31.3729623
        ]
      },
      "properties": {
        "type": "storage",
        "subtype": "gas",
        "name": "Petal Gas Storage",
        "operator": "Petal Gas Storage LLC",
        "capacity": "46008000 Mcf",
        "capacity_num": 46008000,
        "utilization": 93
      }
    },
    {
      "type": "Feature",
      "geometry": {
        "type": "Point",
        "coordinates": [
          -91.056248,
          32.8752434
        ]
      },
      "properties": {
        "type": "storage",
        "subtype": "oil",
        "name": "Mayersville Tank Farm",
        "operator": "Mid Valley Pipeline Company LLC",
        "capacity": "5.3M bbls",
        "capacity_num": 5315438,
        "utilization": 93
      }
    },
    {
      "type": "Feature",
      "geometry": {
        "type": "Point",
        "coordinates": [
          -81.8784934,
          34.9265038
        ]
      },
      "properties": {
        "type": "storage",
        "subtype": "oil",
        "name": "Spartanburg Tank Farm",
        "operator": "Products (SE) Pipe Line Corporation",
        "capacity": "2.2M bbls",
        "capacity_num": 2188029,
        "utilization": 91
      }
    },
    {
      "type": "Feature",
      "geometry": {
        "type": "Point",
        "coordinates": [
          -91.280558,
          30.7148962
        ]
      },
      "properties": {
        "type": "storage",
        "subtype": "oil",
        "name": "Baton Rogue Junction Storage Facility",
        "operator": "Colonial Pipeline Company",
        "capacity": "5.3M bbls",
        "capacity_num": 5335478,
        "utilization": 93
      }
    },
    {
      "type": "Feature",
      "geometry": {
        "type": "Point",
        "coordinates": [
          -91.2811583,
          30.7114356
        ]
      },
      "properties": {
        "type": "storage",
        "subtype": "oil",
        "name": "Bengal Pipeline Company",
        "operator": "Multiple/Unknown",
        "capacity": "4.0M bbls",
        "capacity_num": 3969808,
        "utilization": 93
      }
    },
    {
      "type": "Feature",
      "geometry": {
        "type": "Point",
        "coordinates": [
          -90.8569199,
          30.0244158
        ]
      },
      "properties": {
        "type": "storage",
        "subtype": "oil",
        "name": "NuStar St. James Terminal",
        "operator": "NuStar Logistics, L.P.",
        "capacity": "9738000 barrels",
        "capacity_num": 9738000,
        "utilization": 93
      }
    },
    {
      "type": "Feature",
      "geometry": {
        "type": "Point",
        "coordinates": [
          -90.8549653,
          30.0158468
        ]
      },
      "properties": {
        "type": "storage",
        "subtype": "oil",
        "name": "Capline Crude Station",
        "operator": "Shell Pipeline Company LP",
        "capacity": "6700000 barrels",
        "capacity_num": 6700000,
        "utilization": 93
      }
    },
    {
      "type": "Feature",
      "geometry": {
        "type": "Point",
        "coordinates": [
          -90.8542715,
          30.0099637
        ]
      },
      "properties": {
        "type": "storage",
        "subtype": "oil",
        "name": "Sugarland Crude Station",
        "operator": "Shell Pipeline Company LP",
        "capacity": "3992000 barrels",
        "capacity_num": 3992000,
        "utilization": 93
      }
    },
    {
      "type": "Feature",
      "geometry": {
        "type": "Point",
        "coordinates": [
          -90.8548316,
          29.9990714
        ]
      },
      "properties": {
        "type": "storage",
        "subtype": "oil",
        "name": "Plains St. James Terminal",
        "operator": "Plains Marketing, L.P.",
        "capacity": "5960000 barrels",
        "capacity_num": 5960000,
        "utilization": 93
      }
    },
    {
      "type": "Feature",
      "geometry": {
        "type": "Point",
        "coordinates": [
          -90.8419722,
          29.9909467
        ]
      },
      "properties": {
        "type": "storage",
        "subtype": "oil",
        "name": "Koch Methanol Terminal",
        "operator": "Multiple/Unknown",
        "capacity": "1.1M bbls",
        "capacity_num": 1059987,
        "utilization": 93
      }
    },
    {
      "type": "Feature",
      "geometry": {
        "type": "Point",
        "coordinates": [
          -91.3084313,
          30.3162691
        ]
      },
      "properties": {
        "type": "storage",
        "subtype": "oil",
        "name": "Bayou Choctaw Strategic Petroleum Reserve",
        "operator": "US Department of Energy",
        "capacity": "76000000 barrels",
        "capacity_num": 76000000,
        "utilization": 93
      }
    },
    {
      "type": "Feature",
      "geometry": {
        "type": "Point",
        "coordinates": [
          -90.2512294,
          29.4750885
        ]
      },
      "properties": {
        "type": "storage",
        "subtype": "oil",
        "name": "Clovelly Dome Oil Storage",
        "operator": "Loop LLC",
        "capacity": "60000000 barrels",
        "capacity_num": 60000000,
        "utilization": 93
      }
    },
    {
      "type": "Feature",
      "geometry": {
        "type": "Point",
        "coordinates": [
          -91.7416169,
          30.5253993
        ]
      },
      "properties": {
        "type": "storage",
        "subtype": "oil",
        "name": "Cabot Marine Feedstock Terminal",
        "operator": "Cabot Corporation",
        "capacity": "1.9M bbls",
        "capacity_num": 1905886,
        "utilization": 93
      }
    },
    {
      "type": "Feature",
      "geometry": {
        "type": "Point",
        "coordinates": [
          -91.9150722,
          30.5441998
        ]
      },
      "properties": {
        "type": "storage",
        "subtype": "gas",
        "name": "Bobcat Gas Storage",
        "operator": "Bobcat Gas Storage, LLC",
        "capacity": "4.4M bbls",
        "capacity_num": 4362495,
        "utilization": 93
      }
    },
    {
      "type": "Feature",
      "geometry": {
        "type": "Point",
        "coordinates": [
          -92.4432388,
          30.7494754
        ]
      },
      "properties": {
        "type": "storage",
        "subtype": "gas",
        "name": "Pine Prairie Energy Center",
        "operator": "Pine Prairie Energy Center, LLC",
        "capacity": "4.4M bbls",
        "capacity_num": 4429431,
        "utilization": 93
      }
    },
    {
      "type": "Feature",
      "geometry": {
        "type": "Point",
        "coordinates": [
          -92.5751341,
          30.2582943
        ]
      },
      "properties": {
        "type": "storage",
        "subtype": "gas",
        "name": "Egan Gas Storage Dome",
        "operator": "Egan Hub Storage, LLC",
        "capacity": "4.2M bbls",
        "capacity_num": 4203956,
        "utilization": 93
      }
    },
    {
      "type": "Feature",
      "geometry": {
        "type": "Point",
        "coordinates": [
          -92.9426086,
          32.374728
        ]
      },
      "properties": {
        "type": "storage",
        "subtype": "gas",
        "name": "Bear Creek Gas Storage",
        "operator": "Bear Creek Storage Company, L.L.C.",
        "capacity": "2.8M bbls",
        "capacity_num": 2830930,
        "utilization": 93
      }
    },
    {
      "type": "Feature",
      "geometry": {
        "type": "Point",
        "coordinates": [
          -88.5313564,
          34.0861098
        ]
      },
      "properties": {
        "type": "storage",
        "subtype": "gas",
        "name": "Goodwin Gas Storage",
        "operator": "Atmos Energy Corporation",
        "capacity": "2.2M bbls",
        "capacity_num": 2240346,
        "utilization": 93
      }
    },
    {
      "type": "Feature",
      "geometry": {
        "type": "Point",
        "coordinates": [
          -91.6229866,
          32.2929412
        ]
      },
      "properties": {
        "type": "storage",
        "subtype": "gas",
        "name": "Perryville Gas Storage",
        "operator": "Perryville Gas Storage LLC",
        "capacity": "5.2M bbls",
        "capacity_num": 5234880,
        "utilization": 93
      }
    },
    {
      "type": "Feature",
      "geometry": {
        "type": "Point",
        "coordinates": [
          -87.1707391,
          37.795862
        ]
      },
      "properties": {
        "type": "storage",
        "subtype": "gas",
        "name": "Bon Harbour Gas Storage",
        "operator": "Atmos Energy Corporation",
        "capacity": "5.0M bbls",
        "capacity_num": 4977620,
        "utilization": 91
      }
    },
    {
      "type": "Feature",
      "geometry": {
        "type": "Point",
        "coordinates": [
          -92.0227689,
          30.6716392
        ]
      },
      "properties": {
        "type": "storage",
        "subtype": "gas",
        "name": "Washington Gas Storage Field",
        "operator": "Transcontinental Gas Pipe Line Company, LLC",
        "capacity": "790000 Mcf",
        "capacity_num": 790000,
        "utilization": 93
      }
    },
    {
      "type": "Feature",
      "geometry": {
        "type": "Point",
        "coordinates": [
          -91.1376451,
          30.0162415
        ]
      },
      "properties": {
        "type": "storage",
        "subtype": "gas",
        "name": "Napoleonville Gas Storage",
        "operator": "Bridgeline Storage Company, LLC",
        "capacity": "3.4M bbls",
        "capacity_num": 3351331,
        "utilization": 93
      }
    },
    {
      "type": "Feature",
      "geometry": {
        "type": "Point",
        "coordinates": [
          -91.1006089,
          30.0122263
        ]
      },
      "properties": {
        "type": "storage",
        "subtype": "gas",
        "name": "Napoleonville Gas Storage",
        "operator": "Multiple/Unknown",
        "capacity": "2.9M bbls",
        "capacity_num": 2916172,
        "utilization": 93
      }
    },
    {
      "type": "Feature",
      "geometry": {
        "type": "Point",
        "coordinates": [
          -93.359023,
          32.3779914
        ]
      },
      "properties": {
        "type": "storage",
        "subtype": "gas",
        "name": "Bistineau Gas Storage",
        "operator": "Gulf South Pipeline Company, LLC",
        "capacity": "5.2M bbls",
        "capacity_num": 5222678,
        "utilization": 93
      }
    },
    {
      "type": "Feature",
      "geometry": {
        "type": "Point",
        "coordinates": [
          -91.3073129,
          30.3103314
        ]
      },
      "properties": {
        "type": "storage",
        "subtype": "gas",
        "name": "Bayou Choctaw Gas Storage",
        "operator": "Boardwalk Storage Company, LLC",
        "capacity": "1.8M bbls",
        "capacity_num": 1846202,
        "utilization": 93
      }
    },
    {
      "type": "Feature",
      "geometry": {
        "type": "Point",
        "coordinates": [
          -92.2847366,
          32.4126965
        ]
      },
      "properties": {
        "type": "storage",
        "subtype": "gas",
        "name": "Cadeville Gas Storage",
        "operator": "Cadeville Gas Storage, LLC",
        "capacity": "1.5M bbls",
        "capacity_num": 1517312,
        "utilization": 93
      }
    },
    {
      "type": "Feature",
      "geometry": {
        "type": "Point",
        "coordinates": [
          -92.5367868,
          32.649433
        ]
      },
      "properties": {
        "type": "storage",
        "subtype": "gas",
        "name": "East Unionville Gas Storage",
        "operator": "Enable Mississippi River Transmission, LLC",
        "capacity": "2.3M bbls",
        "capacity_num": 2308370,
        "utilization": 93
      }
    },
    {
      "type": "Feature",
      "geometry": {
        "type": "Point",
        "coordinates": [
          -92.6114472,
          32.6254479
        ]
      },
      "properties": {
        "type": "storage",
        "subtype": "gas",
        "name": "Ruston Gas Storage",
        "operator": "Enable Gas Transmission, LLC",
        "capacity": "4.9M bbls",
        "capacity_num": 4855108,
        "utilization": 93
      }
    },
    {
      "type": "Feature",
      "geometry": {
        "type": "Point",
        "coordinates": [
          -93.161849,
          33.2358305
        ]
      },
      "properties": {
        "type": "storage",
        "subtype": "oil",
        "name": "Magnolia Tank Farm",
        "operator": "Mid Valley Pipeline Company LLC",
        "capacity": "1.4M bbls",
        "capacity_num": 1398148,
        "utilization": 93
      }
    },
    {
      "type": "Feature",
      "geometry": {
        "type": "Point",
        "coordinates": [
          -90.4642966,
          32.730124
        ]
      },
      "properties": {
        "type": "storage",
        "subtype": "oil",
        "name": "Tinsley Gathering Facility",
        "operator": "Multiple/Unknown",
        "capacity": "90000 barrels",
        "capacity_num": 90000,
        "utilization": 93
      }
    },
    {
      "type": "Feature",
      "geometry": {
        "type": "Point",
        "coordinates": [
          -84.6915298,
          39.0353403
        ]
      },
      "properties": {
        "type": "storage",
        "subtype": "oil",
        "name": "Hebron Pump Station",
        "operator": "Mid Valley Pipeline Company LLC",
        "capacity": "4.2M bbls",
        "capacity_num": 4155947,
        "utilization": 85
      }
    },
    {
      "type": "Feature",
      "geometry": {
        "type": "Point",
        "coordinates": [
          -83.6444054,
          41.2201665
        ]
      },
      "properties": {
        "type": "storage",
        "subtype": "oil",
        "name": "Cygnet Tank Farm",
        "operator": "Mid Valley Pipeline Company LLC",
        "capacity": "1.6M bbls",
        "capacity_num": 1599638,
        "utilization": 85
      }
    },
    {
      "type": "Feature",
      "geometry": {
        "type": "Point",
        "coordinates": [
          -93.6784013,
          32.3520116
        ]
      },
      "properties": {
        "type": "storage",
        "subtype": "oil",
        "name": "Finney Tank Farm",
        "operator": "Permian Express Partners LLC",
        "capacity": "2.3M bbls",
        "capacity_num": 2263892,
        "utilization": 93
      }
    },
    {
      "type": "Feature",
      "geometry": {
        "type": "Point",
        "coordinates": [
          -92.22058,
          31.6992866
        ]
      },
      "properties": {
        "type": "storage",
        "subtype": "oil",
        "name": "Searcy Gathering Facility",
        "operator": "Central Louisiana Energy Pipeline Co., L.L.C.",
        "capacity": "3.5M bbls",
        "capacity_num": 3539792,
        "utilization": 93
      }
    },
    {
      "type": "Feature",
      "geometry": {
        "type": "Point",
        "coordinates": [
          -82.3007069,
          36.6512365
        ]
      },
      "properties": {
        "type": "storage",
        "subtype": "gas",
        "name": "Saltville Gas Storage",
        "operator": "Saltville Gas Storage Company, LLC",
        "capacity": "4.3M bbls",
        "capacity_num": 4296490,
        "utilization": 85
      }
    },
    {
      "type": "Feature",
      "geometry": {
        "type": "Point",
        "coordinates": [
          -87.4886225,
          37.2493271
        ]
      },
      "properties": {
        "type": "storage",
        "subtype": "gas",
        "name": "Barnsley Gas Storage",
        "operator": "Atmos Energy Corporation",
        "capacity": "5.4M bbls",
        "capacity_num": 5352150,
        "utilization": 91
      }
    },
    {
      "type": "Feature",
      "geometry": {
        "type": "Point",
        "coordinates": [
          -87.2081367,
          37.2101722
        ]
      },
      "properties": {
        "type": "storage",
        "subtype": "gas",
        "name": "West Greenville Gas Storage",
        "operator": "Texas Gas Transmission, LLC",
        "capacity": "2.8M bbls",
        "capacity_num": 2814405,
        "utilization": 91
      }
    },
    {
      "type": "Feature",
      "geometry": {
        "type": "Point",
        "coordinates": [
          -87.2500596,
          37.2595628
        ]
      },
      "properties": {
        "type": "storage",
        "subtype": "gas",
        "name": "Graham Lake Gas Storage",
        "operator": "Texas Gas Transmission, LLC",
        "capacity": "2.8M bbls",
        "capacity_num": 2809178,
        "utilization": 91
      }
    },
    {
      "type": "Feature",
      "geometry": {
        "type": "Point",
        "coordinates": [
          -87.4132129,
          37.4183363
        ]
      },
      "properties": {
        "type": "storage",
        "subtype": "gas",
        "name": "Hanson Gas Storage Field",
        "operator": "Texas Gas Transmission, LLC",
        "capacity": "0.6M bbls",
        "capacity_num": 614414,
        "utilization": 91
      }
    },
    {
      "type": "Feature",
      "geometry": {
        "type": "Point",
        "coordinates": [
          -87.3151613,
          37.2968276
        ]
      },
      "properties": {
        "type": "storage",
        "subtype": "gas",
        "name": "Midland Gas Storage",
        "operator": "Texas Gas Transmission, LLC",
        "capacity": "3.3M bbls",
        "capacity_num": 3314124,
        "utilization": 91
      }
    },
    {
      "type": "Feature",
      "geometry": {
        "type": "Point",
        "coordinates": [
          -87.6691029,
          37.6711876
        ]
      },
      "properties": {
        "type": "storage",
        "subtype": "gas",
        "name": "Dixie Gas Storage",
        "operator": "Texas Gas Transmission, LLC",
        "capacity": "1.6M bbls",
        "capacity_num": 1557782,
        "utilization": 91
      }
    },
    {
      "type": "Feature",
      "geometry": {
        "type": "Point",
        "coordinates": [
          -87.1732009,
          38.0035601
        ]
      },
      "properties": {
        "type": "storage",
        "subtype": "gas",
        "name": "Midway Gas Storage Field",
        "operator": "Southern Indiana Gas & Electric",
        "capacity": "4.6M bbls",
        "capacity_num": 4641465,
        "utilization": 91
      }
    },
    {
      "type": "Feature",
      "geometry": {
        "type": "Point",
        "coordinates": [
          -87.225835,
          38.5067184
        ]
      },
      "properties": {
        "type": "storage",
        "subtype": "gas",
        "name": "Alford Gas Storage Field",
        "operator": "Texas Gas Transmission, LLC",
        "capacity": "3.5M bbls",
        "capacity_num": 3514512,
        "utilization": 91
      }
    },
    {
      "type": "Feature",
      "geometry": {
        "type": "Point",
        "coordinates": [
          -87.3685034,
          38.6080929
        ]
      },
      "properties": {
        "type": "storage",
        "subtype": "gas",
        "name": "Monroe City Gas Storage",
        "operator": "Ohio Valley Hub LLC",
        "capacity": "4.3M bbls",
        "capacity_num": 4290966,
        "utilization": 91
      }
    },
    {
      "type": "Feature",
      "geometry": {
        "type": "Point",
        "coordinates": [
          -77.9937921,
          41.8703304
        ]
      },
      "properties": {
        "type": "storage",
        "subtype": "gas",
        "name": "Hebron Gas Storage Field",
        "operator": "Tennessee Gas Pipeline Company, L.L.C.",
        "capacity": "1.2M bbls",
        "capacity_num": 1194454,
        "utilization": 85
      }
    },
    {
      "type": "Feature",
      "geometry": {
        "type": "Point",
        "coordinates": [
          -71.6070562,
          44.764096
        ]
      },
      "properties": {
        "type": "storage",
        "subtype": "oil",
        "name": "Rhymes Propane",
        "operator": "Multiple/Unknown",
        "capacity": "4.5M bbls",
        "capacity_num": 4532614,
        "utilization": 85
      }
    },
    {
      "type": "Feature",
      "geometry": {
        "type": "Point",
        "coordinates": [
          -83.728742,
          36.6691271
        ]
      },
      "properties": {
        "type": "storage",
        "subtype": "gas",
        "name": "Canada Mountain Gas Storage",
        "operator": "Delta Natural Gas Company, Inc.",
        "capacity": "2.3M bbls",
        "capacity_num": 2296489,
        "utilization": 85
      }
    },
    {
      "type": "Feature",
      "geometry": {
        "type": "Point",
        "coordinates": [
          -75.4839424,
          40.6454315
        ]
      },
      "properties": {
        "type": "storage",
        "subtype": "gas",
        "name": "LHT - Fullerton Terminal",
        "operator": "Multiple/Unknown",
        "capacity": "4.4M bbls",
        "capacity_num": 4385733,
        "utilization": 85
      }
    },
    {
      "type": "Feature",
      "geometry": {
        "type": "Point",
        "coordinates": [
          -75.4811712,
          40.6438013
        ]
      },
      "properties": {
        "type": "storage",
        "subtype": "gas",
        "name": "United Energy Plus Terminals",
        "operator": "Multiple/Unknown",
        "capacity": "4.2M bbls",
        "capacity_num": 4210376,
        "utilization": 85
      }
    },
    {
      "type": "Feature",
      "geometry": {
        "type": "Point",
        "coordinates": [
          -104.3293099,
          39.7379735
        ]
      },
      "properties": {
        "type": "storage",
        "subtype": "gas",
        "name": "Suburban Propane",
        "operator": "Multiple/Unknown",
        "capacity": "0.8M bbls",
        "capacity_num": 823057,
        "utilization": 82
      }
    },
    {
      "type": "Feature",
      "geometry": {
        "type": "Point",
        "coordinates": [
          -91.5308673,
          29.6318781
        ]
      },
      "properties": {
        "type": "storage",
        "subtype": "oil",
        "name": "Crescent Midstream",
        "operator": "Crescent Midstream, LLC",
        "capacity": "3.4M bbls",
        "capacity_num": 3447632,
        "utilization": 93
      }
    },
    {
      "type": "Feature",
      "geometry": {
        "type": "Point",
        "coordinates": [
          -87.4760907,
          41.6485693
        ]
      },
      "properties": {
        "type": "refinery",
        "subtype": "oil",
        "name": "Safety-Kleen Systems",
        "operator": "Multiple/Unknown",
        "capacity": "191k bbl/d",
        "capacity_num": 191225,
        "utilization": 91
      }
    },
    {
      "type": "Feature",
      "geometry": {
        "type": "Point",
        "coordinates": [
          -121.0114544,
          49.7475977
        ]
      },
      "properties": {
        "type": "storage",
        "subtype": "gas",
        "name": "GAS Storage",
        "operator": "Multiple/Unknown",
        "capacity": "4.6M bbls",
        "capacity_num": 4649149,
        "utilization": 88
      }
    },
    {
      "type": "Feature",
      "geometry": {
        "type": "Point",
        "coordinates": [
          -105.7317808,
          25.3444101
        ]
      },
      "properties": {
        "type": "storage",
        "subtype": "gas",
        "name": "Gas Imperial",
        "operator": "Multiple/Unknown",
        "capacity": "5.3M bbls",
        "capacity_num": 5292161,
        "utilization": 91
      }
    },
    {
      "type": "Feature",
      "geometry": {
        "type": "Point",
        "coordinates": [
          -101.7637661,
          31.5264847
        ]
      },
      "properties": {
        "type": "storage",
        "subtype": "oil",
        "name": "Sherrod Tank Battery",
        "operator": "XTO Energy Inc",
        "capacity": "4.5M bbls",
        "capacity_num": 4520280,
        "utilization": 91
      }
    },
    {
      "type": "Feature",
      "geometry": {
        "type": "Point",
        "coordinates": [
          -118.2916549,
          33.7652432
        ]
      },
      "properties": {
        "type": "storage",
        "subtype": "gas",
        "name": "Rancho LPG Holdings LLC",
        "operator": "Multiple/Unknown",
        "capacity": "4.3M bbls",
        "capacity_num": 4335013,
        "utilization": 91
      }
    },
    {
      "type": "Feature",
      "geometry": {
        "type": "Point",
        "coordinates": [
          -83.1399914,
          42.2822145
        ]
      },
      "properties": {
        "type": "storage",
        "subtype": "oil",
        "name": "Buckeye Partners Detroit Terminal",
        "operator": "Multiple/Unknown",
        "capacity": "3.9M bbls",
        "capacity_num": 3949082,
        "utilization": 85
      }
    },
    {
      "type": "Feature",
      "geometry": {
        "type": "Point",
        "coordinates": [
          -95.4151574,
          47.688526
        ]
      },
      "properties": {
        "type": "storage",
        "subtype": "oil",
        "name": "Clearbrook Terminal",
        "operator": "Enbridge",
        "capacity": "3.3M bbls",
        "capacity_num": 3296760,
        "utilization": 91
      }
    },
    {
      "type": "Feature",
      "geometry": {
        "type": "Point",
        "coordinates": [
          -84.1205378,
          40.7049114
        ]
      },
      "properties": {
        "type": "storage",
        "subtype": "oil",
        "name": "Lima Tank Farm",
        "operator": "Mid Valley Pipeline Company LLC",
        "capacity": "934000 barrels",
        "capacity_num": 934000,
        "utilization": 85
      }
    },
    {
      "type": "Feature",
      "geometry": {
        "type": "Point",
        "coordinates": [
          -88.1278887,
          30.5501019
        ]
      },
      "properties": {
        "type": "storage",
        "subtype": "oil",
        "name": "OIL Storage",
        "operator": "Multiple/Unknown",
        "capacity": "2.8M bbls",
        "capacity_num": 2768258,
        "utilization": 93
      }
    },
    {
      "type": "Feature",
      "geometry": {
        "type": "Point",
        "coordinates": [
          -65.044,
          45.271
        ]
      },
      "properties": {
        "type": "refinery",
        "subtype": "oil",
        "name": "Irving Oil Refinery",
        "operator": "Irving Oil",
        "capacity": "320k bbl/d",
        "capacity_num": 320000,
        "utilization": 85
      }
    },
    {
      "type": "Feature",
      "geometry": {
        "type": "Point",
        "coordinates": [
          -113.364,
          53.535
        ]
      },
      "properties": {
        "type": "refinery",
        "subtype": "oil",
        "name": "Strathcona Refinery",
        "operator": "Imperial Oil",
        "capacity": "191k bbl/d",
        "capacity_num": 191000,
        "utilization": 88
      }
    },
    {
      "type": "Feature",
      "geometry": {
        "type": "Point",
        "coordinates": [
          -113.159,
          53.766
        ]
      },
      "properties": {
        "type": "refinery",
        "subtype": "oil",
        "name": "Scotford Refinery",
        "operator": "Shell",
        "capacity": "114k bbl/d",
        "capacity_num": 114000,
        "utilization": 88
      }
    },
    {
      "type": "Feature",
      "geometry": {
        "type": "Point",
        "coordinates": [
          -82.417,
          42.946
        ]
      },
      "properties": {
        "type": "refinery",
        "subtype": "oil",
        "name": "Sarnia Refinery",
        "operator": "Imperial Oil",
        "capacity": "119k bbl/d",
        "capacity_num": 119000,
        "utilization": 85
      }
    },
    {
      "type": "Feature",
      "geometry": {
        "type": "Point",
        "coordinates": [
          -80.054,
          42.816
        ]
      },
      "properties": {
        "type": "refinery",
        "subtype": "oil",
        "name": "Nanticoke Refinery",
        "operator": "Imperial Oil",
        "capacity": "119k bbl/d",
        "capacity_num": 119000,
        "utilization": 85
      }
    },
    {
      "type": "Feature",
      "geometry": {
        "type": "Point",
        "coordinates": [
          -71.168,
          46.764
        ]
      },
      "properties": {
        "type": "refinery",
        "subtype": "oil",
        "name": "Jean Gaulin (Levis)",
        "operator": "Valero",
        "capacity": "235k bbl/d",
        "capacity_num": 235000,
        "utilization": 85
      }
    },
    {
      "type": "Feature",
      "geometry": {
        "type": "Point",
        "coordinates": [
          -73.518,
          45.632
        ]
      },
      "properties": {
        "type": "refinery",
        "subtype": "oil",
        "name": "Montreal East",
        "operator": "Suncor",
        "capacity": "137k bbl/d",
        "capacity_num": 137000,
        "utilization": 85
      }
    },
    {
      "type": "Feature",
      "geometry": {
        "type": "Point",
        "coordinates": [
          -104.595,
          50.485
        ]
      },
      "properties": {
        "type": "refinery",
        "subtype": "oil",
        "name": "Co-op Refinery Complex",
        "operator": "Federated Co-operatives",
        "capacity": "130k bbl/d",
        "capacity_num": 130000,
        "utilization": 88
      }
    },
    {
      "type": "Feature",
      "geometry": {
        "type": "Point",
        "coordinates": [
          -122.955,
          49.288
        ]
      },
      "properties": {
        "type": "refinery",
        "subtype": "oil",
        "name": "Burnaby Refinery",
        "operator": "Parkland",
        "capacity": "55k bbl/d",
        "capacity_num": 55000,
        "utilization": 88
      }
    },
    {
      "type": "Feature",
      "geometry": {
        "type": "Point",
        "coordinates": [
          -110.01,
          53.256
        ]
      },
      "properties": {
        "type": "refinery",
        "subtype": "oil",
        "name": "Lloydminster Upgrader",
        "operator": "Cenovus",
        "capacity": "82k bbl/d",
        "capacity_num": 82000,
        "utilization": 88
      }
    },
    {
      "type": "Feature",
      "geometry": {
        "type": "Point",
        "coordinates": [
          -122.764,
          53.882
        ]
      },
      "properties": {
        "type": "refinery",
        "subtype": "oil",
        "name": "Prince George Refinery",
        "operator": "Tidewater",
        "capacity": "12k bbl/d",
        "capacity_num": 12000,
        "utilization": 88
      }
    },
    {
      "type": "Feature",
      "geometry": {
        "type": "Point",
        "coordinates": [
          -110.005,
          50.751
        ]
      },
      "properties": {
        "type": "refinery",
        "subtype": "gas",
        "name": "Empress Gas Plant",
        "operator": "Plains Midstream",
        "capacity": "300 MMcf/d",
        "capacity_num": 300000,
        "utilization": 88
      }
    },
    {
      "type": "Feature",
      "geometry": {
        "type": "Point",
        "coordinates": [
          -114.475,
          51.185
        ]
      },
      "properties": {
        "type": "refinery",
        "subtype": "gas",
        "name": "Cochrane Extraction",
        "operator": "Inter Pipeline",
        "capacity": "250 MMcf/d",
        "capacity_num": 250000,
        "utilization": 88
      }
    },
    {
      "type": "Feature",
      "geometry": {
        "type": "Point",
        "coordinates": [
          -114.248,
          51.722
        ]
      },
      "properties": {
        "type": "refinery",
        "subtype": "gas",
        "name": "Harmattan Gas Plant",
        "operator": "Keyera",
        "capacity": "150 MMcf/d",
        "capacity_num": 150000,
        "utilization": 88
      }
    },
    {
      "type": "Feature",
      "geometry": {
        "type": "Point",
        "coordinates": [
          -114.238,
          52.617
        ]
      },
      "properties": {
        "type": "refinery",
        "subtype": "gas",
        "name": "Rimbey Gas Plant",
        "operator": "Keyera",
        "capacity": "120 MMcf/d",
        "capacity_num": 120000,
        "utilization": 88
      }
    },
    {
      "type": "Feature",
      "geometry": {
        "type": "Point",
        "coordinates": [
          -93.943,
          29.878
        ]
      },
      "properties": {
        "type": "refinery",
        "subtype": "oil",
        "name": "Motiva Port Arthur",
        "operator": "Motiva",
        "capacity": "630k bbl/d",
        "capacity_num": 630000,
        "utilization": 93
      }
    },
    {
      "type": "Feature",
      "geometry": {
        "type": "Point",
        "coordinates": [
          -94.908,
          29.378
        ]
      },
      "properties": {
        "type": "refinery",
        "subtype": "oil",
        "name": "Marathon Galveston Bay",
        "operator": "Marathon",
        "capacity": "593k bbl/d",
        "capacity_num": 593000,
        "utilization": 93
      }
    },
    {
      "type": "Feature",
      "geometry": {
        "type": "Point",
        "coordinates": [
          -94.073,
          30.063
        ]
      },
      "properties": {
        "type": "refinery",
        "subtype": "oil",
        "name": "ExxonMobil Beaumont",
        "operator": "ExxonMobil",
        "capacity": "609k bbl/d",
        "capacity_num": 609000,
        "utilization": 93
      }
    },
    {
      "type": "Feature",
      "geometry": {
        "type": "Point",
        "coordinates": [
          -90.627,
          30.068
        ]
      },
      "properties": {
        "type": "refinery",
        "subtype": "oil",
        "name": "Marathon Garyville",
        "operator": "Marathon",
        "capacity": "578k bbl/d",
        "capacity_num": 578000,
        "utilization": 93
      }
    },
    {
      "type": "Feature",
      "geometry": {
        "type": "Point",
        "coordinates": [
          -93.284,
          30.198
        ]
      },
      "properties": {
        "type": "refinery",
        "subtype": "oil",
        "name": "Citgo Lake Charles",
        "operator": "Citgo",
        "capacity": "455k bbl/d",
        "capacity_num": 455000,
        "utilization": 93
      }
    },
    {
      "type": "Feature",
      "geometry": {
        "type": "Point",
        "coordinates": [
          -88.489,
          30.342
        ]
      },
      "properties": {
        "type": "refinery",
        "subtype": "oil",
        "name": "Chevron Pascagoula",
        "operator": "Chevron",
        "capacity": "356k bbl/d",
        "capacity_num": 356000,
        "utilization": 93
      }
    },
    {
      "type": "Feature",
      "geometry": {
        "type": "Point",
        "coordinates": [
          -95.733,
          29.049
        ]
      },
      "properties": {
        "type": "refinery",
        "subtype": "oil",
        "name": "Phillips 66 Sweeny",
        "operator": "Phillips 66",
        "capacity": "262k bbl/d",
        "capacity_num": 262000,
        "utilization": 93
      }
    },
    {
      "type": "Feature",
      "geometry": {
        "type": "Point",
        "coordinates": [
          -97.433,
          27.818
        ]
      },
      "properties": {
        "type": "refinery",
        "subtype": "oil",
        "name": "Valero Corpus Christi",
        "operator": "Valero",
        "capacity": "290k bbl/d",
        "capacity_num": 290000,
        "utilization": 93
      }
    },
    {
      "type": "Feature",
      "geometry": {
        "type": "Point",
        "coordinates": [
          -87.733,
          39.001
        ]
      },
      "properties": {
        "type": "refinery",
        "subtype": "oil",
        "name": "Marathon Robinson",
        "operator": "Marathon",
        "capacity": "253k bbl/d",
        "capacity_num": 253000,
        "utilization": 91
      }
    },
    {
      "type": "Feature",
      "geometry": {
        "type": "Point",
        "coordinates": [
          -90.065,
          38.835
        ]
      },
      "properties": {
        "type": "refinery",
        "subtype": "oil",
        "name": "Phillips 66 Wood River",
        "operator": "Phillips 66 / Cenovus",
        "capacity": "356k bbl/d",
        "capacity_num": 356000,
        "utilization": 91
      }
    },
    {
      "type": "Feature",
      "geometry": {
        "type": "Point",
        "coordinates": [
          -88.043,
          41.656
        ]
      },
      "properties": {
        "type": "refinery",
        "subtype": "oil",
        "name": "Citgo Lemont",
        "operator": "Citgo",
        "capacity": "177k bbl/d",
        "capacity_num": 177000,
        "utilization": 91
      }
    },
    {
      "type": "Feature",
      "geometry": {
        "type": "Point",
        "coordinates": [
          -81.381,
          40.781
        ]
      },
      "properties": {
        "type": "refinery",
        "subtype": "oil",
        "name": "Marathon Canton",
        "operator": "Marathon",
        "capacity": "97k bbl/d",
        "capacity_num": 97000,
        "utilization": 85
      }
    },
    {
      "type": "Feature",
      "geometry": {
        "type": "Point",
        "coordinates": [
          -82.607,
          38.388
        ]
      },
      "properties": {
        "type": "refinery",
        "subtype": "oil",
        "name": "Marathon Catlettsburg",
        "operator": "Marathon",
        "capacity": "291k bbl/d",
        "capacity_num": 291000,
        "utilization": 85
      }
    },
    {
      "type": "Feature",
      "geometry": {
        "type": "Point",
        "coordinates": [
          -118.406,
          33.911
        ]
      },
      "properties": {
        "type": "refinery",
        "subtype": "oil",
        "name": "Chevron El Segundo",
        "operator": "Chevron",
        "capacity": "269k bbl/d",
        "capacity_num": 269000,
        "utilization": 91
      }
    },
    {
      "type": "Feature",
      "geometry": {
        "type": "Point",
        "coordinates": [
          -122.392,
          37.94
        ]
      },
      "properties": {
        "type": "refinery",
        "subtype": "oil",
        "name": "Chevron Richmond",
        "operator": "Chevron",
        "capacity": "245k bbl/d",
        "capacity_num": 245000,
        "utilization": 82
      }
    },
    {
      "type": "Feature",
      "geometry": {
        "type": "Point",
        "coordinates": [
          -122.131,
          38.067
        ]
      },
      "properties": {
        "type": "refinery",
        "subtype": "oil",
        "name": "Valero Benicia",
        "operator": "Valero",
        "capacity": "145k bbl/d",
        "capacity_num": 145000,
        "utilization": 82
      }
    },
    {
      "type": "Feature",
      "geometry": {
        "type": "Point",
        "coordinates": [
          -122.723,
          48.868
        ]
      },
      "properties": {
        "type": "refinery",
        "subtype": "oil",
        "name": "BP Cherry Point",
        "operator": "BP",
        "capacity": "250k bbl/d",
        "capacity_num": 250000,
        "utilization": 82
      }
    },
    {
      "type": "Feature",
      "geometry": {
        "type": "Point",
        "coordinates": [
          -122.564,
          48.472
        ]
      },
      "properties": {
        "type": "refinery",
        "subtype": "oil",
        "name": "Marathon Anacortes",
        "operator": "Marathon",
        "capacity": "119k bbl/d",
        "capacity_num": 119000,
        "utilization": 82
      }
    },
    {
      "type": "Feature",
      "geometry": {
        "type": "Point",
        "coordinates": [
          -75.405,
          39.831
        ]
      },
      "properties": {
        "type": "refinery",
        "subtype": "oil",
        "name": "Monroe Trainer",
        "operator": "Monroe Energy",
        "capacity": "185k bbl/d",
        "capacity_num": 185000,
        "utilization": 85
      }
    },
    {
      "type": "Feature",
      "geometry": {
        "type": "Point",
        "coordinates": [
          -75.617,
          39.585
        ]
      },
      "properties": {
        "type": "refinery",
        "subtype": "oil",
        "name": "PBF Delaware City",
        "operator": "PBF Energy",
        "capacity": "182k bbl/d",
        "capacity_num": 182000,
        "utilization": 85
      }
    },
    {
      "type": "Feature",
      "geometry": {
        "type": "Point",
        "coordinates": [
          -75.253,
          39.834
        ]
      },
      "properties": {
        "type": "refinery",
        "subtype": "oil",
        "name": "PBF Paulsboro",
        "operator": "PBF Energy",
        "capacity": "100k bbl/d",
        "capacity_num": 100000,
        "utilization": 85
      }
    },
    {
      "type": "Feature",
      "geometry": {
        "type": "Point",
        "coordinates": [
          -74.225,
          40.612
        ]
      },
      "properties": {
        "type": "refinery",
        "subtype": "oil",
        "name": "Phillips 66 Bayway",
        "operator": "Phillips 66",
        "capacity": "238k bbl/d",
        "capacity_num": 238000,
        "utilization": 85
      }
    },
    {
      "type": "Feature",
      "geometry": {
        "type": "Point",
        "coordinates": [
          -107.126,
          41.777
        ]
      },
      "properties": {
        "type": "refinery",
        "subtype": "oil",
        "name": "Sinclair Wyoming",
        "operator": "Sinclair",
        "capacity": "94k bbl/d",
        "capacity_num": 94000,
        "utilization": 82
      }
    },
    {
      "type": "Feature",
      "geometry": {
        "type": "Point",
        "coordinates": [
          -104.939,
          39.814
        ]
      },
      "properties": {
        "type": "refinery",
        "subtype": "oil",
        "name": "Suncor Commerce City",
        "operator": "Suncor",
        "capacity": "103k bbl/d",
        "capacity_num": 103000,
        "utilization": 82
      }
    }
  ]
}