{
  "type": "FeatureCollection",
  "features": [
    {
      "type": "Feature",
      "properties": {
        "OBJECTID": 60000,
        "name": "Genesee Generating Station",
        "type": "fossil",
        "subtype": "coal",
        "operator": "Capital Power",
        "capacity": "1376 MW",
        "capacity_num": 1376
      },
      "geometry": {
        "type": "Point",
        "coordinates": [
          -114.303,
          53.342
        ]
      }
    },
    {
      "type": "Feature",
      "properties": {
        "OBJECTID": 60001,
        "name": "Keephills Generating Station",
        "type": "fossil",
        "subtype": "coal",
        "operator": "TransAlta",
        "capacity": "790 MW",
        "capacity_num": 790
      },
      "geometry": {
        "type": "Point",
        "coordinates": [
          -114.45,
          53.447
        ]
      }
    },
    {
      "type": "Feature",
      "properties": {
        "OBJECTID": 60002,
        "name": "Sheerness Generating Station",
        "type": "fossil",
        "subtype": "coal",
        "operator": "Heartland Generation",
        "capacity": "780 MW",
        "capacity_num": 780
      },
      "geometry": {
        "type": "Point",
        "coordinates": [
          -111.966,
          51.463
        ]
      }
    },
    {
      "type": "Feature",
      "properties": {
        "OBJECTID": 60003,
        "name": "Poplar River Power Station",
        "type": "fossil",
        "subtype": "coal",
        "operator": "SaskPower",
        "capacity": "582 MW",
        "capacity_num": 582
      },
      "geometry": {
        "type": "Point",
        "coordinates": [
          -105.479,
          49.055
        ]
      }
    },
    {
      "type": "Feature",
      "properties": {
        "OBJECTID": 60004,
        "name": "Boundary Dam Power Station",
        "type": "fossil",
        "subtype": "coal",
        "operator": "SaskPower",
        "capacity": "672 MW",
        "capacity_num": 672
      },
      "geometry": {
        "type": "Point",
        "coordinates": [
          -103.031,
          49.096
        ]
      }
    },
    {
      "type": "Feature",
      "properties": {
        "OBJECTID": 60005,
        "name": "Shand Power Station",
        "type": "fossil",
        "subtype": "coal",
        "operator": "SaskPower",
        "capacity": "276 MW",
        "capacity_num": 276
      },
      "geometry": {
        "type": "Point",
        "coordinates": [
          -102.866,
          49.083
        ]
      }
    },
    {
      "type": "Feature",
      "properties": {
        "OBJECTID": 60006,
        "name": "Lingan Generating Station",
        "type": "fossil",
        "subtype": "coal",
        "operator": "Nova Scotia Power",
        "capacity": "600 MW",
        "capacity_num": 600
      },
      "geometry": {
        "type": "Point",
        "coordinates": [
          -60.033,
          46.233
        ]
      }
    },
    {
      "type": "Feature",
      "properties": {
        "OBJECTID": 60007,
        "name": "Belledune Generating Station",
        "type": "fossil",
        "subtype": "coal",
        "operator": "NB Power",
        "capacity": "458 MW",
        "capacity_num": 458
      },
      "geometry": {
        "type": "Point",
        "coordinates": [
          -65.85,
          47.9
        ]
      }
    },
    {
      "type": "Feature",
      "properties": {
        "OBJECTID": 60008,
        "name": "Sundance Power Station",
        "type": "fossil",
        "subtype": "gas",
        "operator": "TransAlta",
        "capacity": "852 MW",
        "capacity_num": 852
      },
      "geometry": {
        "type": "Point",
        "coordinates": [
          -114.556,
          53.506
        ]
      }
    },
    {
      "type": "Feature",
      "properties": {
        "OBJECTID": 60009,
        "name": "Queen Elizabeth Power Station",
        "type": "fossil",
        "subtype": "gas",
        "operator": "SaskPower",
        "capacity": "634 MW",
        "capacity_num": 634
      },
      "geometry": {
        "type": "Point",
        "coordinates": [
          -106.699,
          52.122
        ]
      }
    },
    {
      "type": "Feature",
      "properties": {
        "OBJECTID": 60010,
        "name": "Goreway Power Station",
        "type": "fossil",
        "subtype": "gas",
        "operator": "Capital Power",
        "capacity": "875 MW",
        "capacity_num": 875
      },
      "geometry": {
        "type": "Point",
        "coordinates": [
          -79.664,
          43.753
        ]
      }
    },
    {
      "type": "Feature",
      "properties": {
        "OBJECTID": 60011,
        "name": "Halton Hills Generating Station",
        "type": "fossil",
        "subtype": "gas",
        "operator": "Atura Power",
        "capacity": "683 MW",
        "capacity_num": 683
      },
      "geometry": {
        "type": "Point",
        "coordinates": [
          -79.948,
          43.565
        ]
      }
    },
    {
      "type": "Feature",
      "properties": {
        "OBJECTID": 60012,
        "name": "Lennox Generating Station",
        "type": "fossil",
        "subtype": "gas",
        "operator": "OPG",
        "capacity": "2100 MW",
        "capacity_num": 2100
      },
      "geometry": {
        "type": "Point",
        "coordinates": [
          -76.849,
          44.148
        ]
      }
    },
    {
      "type": "Feature",
      "properties": {
        "OBJECTID": 60013,
        "name": "Bécancour Cogeneration Plant",
        "type": "fossil",
        "subtype": "gas",
        "operator": "Cartier Énergie",
        "capacity": "410 MW",
        "capacity_num": 410
      },
      "geometry": {
        "type": "Point",
        "coordinates": [
          -72.391,
          46.368
        ]
      }
    },
    {
      "type": "Feature",
      "properties": {
        "OBJECTID": 60014,
        "name": "Coleson Cove Generating Station",
        "type": "fossil",
        "subtype": "oil",
        "operator": "NB Power",
        "capacity": "978 MW",
        "capacity_num": 978
      },
      "geometry": {
        "type": "Point",
        "coordinates": [
          -66.208,
          45.148
        ]
      }
    },
    {
      "type": "Feature",
      "properties": {
        "OBJECTID": 60015,
        "name": "Scherer Power Plant",
        "type": "fossil",
        "subtype": "coal",
        "operator": "Georgia Power",
        "capacity": "3520 MW",
        "capacity_num": 3520
      },
      "geometry": {
        "type": "Point",
        "coordinates": [
          -83.807,
          33.06
        ]
      }
    },
    {
      "type": "Feature",
      "properties": {
        "OBJECTID": 60016,
        "name": "James H. Miller Jr. Plant",
        "type": "fossil",
        "subtype": "coal",
        "operator": "Alabama Power",
        "capacity": "2822 MW",
        "capacity_num": 2822
      },
      "geometry": {
        "type": "Point",
        "coordinates": [
          -87.06,
          33.631
        ]
      }
    },
    {
      "type": "Feature",
      "properties": {
        "OBJECTID": 60017,
        "name": "Gibson Generating Station",
        "type": "fossil",
        "subtype": "coal",
        "operator": "Duke Energy",
        "capacity": "3145 MW",
        "capacity_num": 3145
      },
      "geometry": {
        "type": "Point",
        "coordinates": [
          -87.766,
          38.372
        ]
      }
    },
    {
      "type": "Feature",
      "properties": {
        "OBJECTID": 60018,
        "name": "Monroe Power Plant",
        "type": "fossil",
        "subtype": "coal",
        "operator": "DTE Energy",
        "capacity": "3280 MW",
        "capacity_num": 3280
      },
      "geometry": {
        "type": "Point",
        "coordinates": [
          -83.346,
          41.889
        ]
      }
    },
    {
      "type": "Feature",
      "properties": {
        "OBJECTID": 60019,
        "name": "John E. Amos Power Plant",
        "type": "fossil",
        "subtype": "coal",
        "operator": "Appalachian Power",
        "capacity": "2933 MW",
        "capacity_num": 2933
      },
      "geometry": {
        "type": "Point",
        "coordinates": [
          -81.823,
          38.473
        ]
      }
    },
    {
      "type": "Feature",
      "properties": {
        "OBJECTID": 60020,
        "name": "Navajo Generating Station (Historic)",
        "type": "fossil",
        "subtype": "coal",
        "operator": "SRP",
        "capacity": "2250 MW",
        "capacity_num": 2250
      },
      "geometry": {
        "type": "Point",
        "coordinates": [
          -111.388,
          36.904
        ]
      }
    },
    {
      "type": "Feature",
      "properties": {
        "OBJECTID": 60021,
        "name": "Colstrip Power Plant",
        "type": "fossil",
        "subtype": "coal",
        "operator": "Talen Energy",
        "capacity": "2094 MW",
        "capacity_num": 2094
      },
      "geometry": {
        "type": "Point",
        "coordinates": [
          -106.613,
          45.882
        ]
      }
    },
    {
      "type": "Feature",
      "properties": {
        "OBJECTID": 60022,
        "name": "Laramie River Station",
        "type": "fossil",
        "subtype": "coal",
        "operator": "Basin Electric",
        "capacity": "1710 MW",
        "capacity_num": 1710
      },
      "geometry": {
        "type": "Point",
        "coordinates": [
          -104.888,
          42.083
        ]
      }
    },
    {
      "type": "Feature",
      "properties": {
        "OBJECTID": 60023,
        "name": "West County Energy Center",
        "type": "fossil",
        "subtype": "gas",
        "operator": "FPL",
        "capacity": "3658 MW",
        "capacity_num": 3658
      },
      "geometry": {
        "type": "Point",
        "coordinates": [
          -80.373,
          26.697
        ]
      }
    },
    {
      "type": "Feature",
      "properties": {
        "OBJECTID": 60024,
        "name": "Martin County Power Plant",
        "type": "fossil",
        "subtype": "gas",
        "operator": "FPL",
        "capacity": "3605 MW",
        "capacity_num": 3605
      },
      "geometry": {
        "type": "Point",
        "coordinates": [
          -80.564,
          27.054
        ]
      }
    },
    {
      "type": "Feature",
      "properties": {
        "OBJECTID": 60025,
        "name": "Oswego Generating Station",
        "type": "fossil",
        "subtype": "gas",
        "operator": "NRG Energy",
        "capacity": "1624 MW",
        "capacity_num": 1624
      },
      "geometry": {
        "type": "Point",
        "coordinates": [
          -76.529,
          43.456
        ]
      }
    },
    {
      "type": "Feature",
      "properties": {
        "OBJECTID": 60026,
        "name": "Mystic Generating Station",
        "type": "fossil",
        "subtype": "gas",
        "operator": "Constellation",
        "capacity": "2001 MW",
        "capacity_num": 2001
      },
      "geometry": {
        "type": "Point",
        "coordinates": [
          -71.066,
          42.39
        ]
      }
    },
    {
      "type": "Feature",
      "properties": {
        "OBJECTID": 60027,
        "name": "Midlothian Energy Facility",
        "type": "fossil",
        "subtype": "gas",
        "operator": "Vistra Energy",
        "capacity": "1650 MW",
        "capacity_num": 1650
      },
      "geometry": {
        "type": "Point",
        "coordinates": [
          -97.027,
          32.428
        ]
      }
    },
    {
      "type": "Feature",
      "properties": {
        "OBJECTID": 60028,
        "name": "Gila River Power Station",
        "type": "fossil",
        "subtype": "gas",
        "operator": "SRP",
        "capacity": "2200 MW",
        "capacity_num": 2200
      },
      "geometry": {
        "type": "Point",
        "coordinates": [
          -112.802,
          33.023
        ]
      }
    },
    {
      "type": "Feature",
      "properties": {
        "OBJECTID": 60029,
        "name": "Moss Landing Power Plant",
        "type": "fossil",
        "subtype": "gas",
        "operator": "Vistra Energy",
        "capacity": "1020 MW",
        "capacity_num": 1020
      },
      "geometry": {
        "type": "Point",
        "coordinates": [
          -121.782,
          36.804
        ]
      }
    },
    {
      "type": "Feature",
      "properties": {
        "OBJECTID": 60030,
        "name": "Sutter Energy Center",
        "type": "fossil",
        "subtype": "gas",
        "operator": "Calpine",
        "capacity": "578 MW",
        "capacity_num": 578
      },
      "geometry": {
        "type": "Point",
        "coordinates": [
          -121.649,
          39.066
        ]
      }
    },
    {
      "type": "Feature",
      "properties": {
        "OBJECTID": 60031,
        "name": "Waiau Power Plant",
        "type": "fossil",
        "subtype": "oil",
        "operator": "Hawaiian Electric",
        "capacity": "500 MW",
        "capacity_num": 500
      },
      "geometry": {
        "type": "Point",
        "coordinates": [
          -157.962,
          21.396
        ]
      }
    }
  ]
}